BEIDOU 3 (C01)          
1 36287U 10001A   23013.62618794 -.00000261  00000+0  00000+0 0  9998
2 36287   1.8832  52.0016 0002502 260.8201 165.8721  1.00273135 47623
BEIDOU 5 (C06)          
1 36828U 10036A   23013.36926598 -.00000057  00000+0  00000+0 0  9995
2 36828  54.2045 174.3104 0034674 182.5765 355.4225  1.00290827 45685
BEIDOU 6 (C04)          
1 37210U 10057A   23013.64349255 -.00000092  00000+0  00000+0 0  9993
2 37210   0.9258  51.2959 0006060 176.3307 276.9138  1.00273349 44743
BEIDOU 7 (C07)          
1 37256U 10068A   23013.63074896 -.00000185  00000+0  00000+0 0  9993
2 37256  49.8322 287.1251 0024698 206.8253 310.7423  1.00301795 44255
BEIDOU 8 (C08)          
1 37384U 11013A   23013.56486845 -.00000160  00000+0  00000+0 0  9992
2 37384  60.5940  52.1883 0023626 189.8722 178.5690  1.00252908 43138
BEIDOU 9 (C09)          
1 37763U 11038A   23013.09942534  .00000045  00000+0  00000+0 0  9991
2 37763  54.4798 176.8190 0102077 227.2195 199.2891  1.00279829 42106
BEIDOU 10 (C10)         
1 37948U 11073A   23013.62527369 -.00000144  00000+0  00000+0 0  9990
2 37948  49.9574 286.7809 0086532 221.1674 285.3091  1.00286501 40867
BEIDOU 11 (C05)         
1 38091U 12008A   23013.57471381  .00000076  00000+0  00000+0 0  9998
2 38091   2.0452  71.3742 0011200 306.6761   0.3787  1.00269910 39930
BEIDOU 12 (C11)         
1 38250U 12018A   23013.34026672 -.00000068  00000+0  00000+0 0  9992
2 38250  56.6222 346.6216 0024885 259.6966 270.9032  1.86234340 72992
BEIDOU 13 (C12)         
1 38251U 12018B   23012.70986998 -.00000069  00000+0  00000+0 0  9999
2 38251  56.5371 345.9523 0015826 263.0781 248.9627  1.86234119 72987
BEIDOU 15 (C14)         
1 38775U 12050B   23013.27647786 -.00000007  00000+0  00000+0 0  9990
2 38775  55.5304 104.6279 0011707 324.6439  42.6602  1.86231179 70375
BEIDOU 16 (C02)         
1 38953U 12059A   23013.43620868 -.00000154  00000+0  00000+0 0  9990
2 38953   1.4438  82.3059 0010008 291.0077 340.2709  1.00267521 37360
BEIDOU 17 (C31)         
1 40549U 15019A   23013.57456308 -.00000149  00000+0  00000+0 0  9998
2 40549  51.5240 310.3074 0036666 200.5714 259.8774  1.00252511 28543
BEIDOU 18 (C57)         
1 40748U 15037A   23013.42195539 -.00000069  00000+0  00000+0 0  9990
2 40748  55.7834 344.6677 0004100 336.7199 201.9142  1.86233222 50820
BEIDOU 19 (C58)         
1 40749U 15037B   23012.68823162 -.00000071  00000+0  00000+0 0  9991
2 40749  55.7876 344.6830 0006917 313.0293 227.7205  1.86232889 50801
BEIDOU 20 (C18)         
1 40938U 15053A   23013.57675377 -.00000111  00000+0  00000+0 0  9996
2 40938  51.1730 273.4548 0042997 194.2973 307.1029  1.00290869 26805
BEIDOU IGSO-6 (C13)     
1 41434U 16021A   23013.65537839 -.00000145  00000+0  00000+0 0  9990
2 41434  58.4067  50.6668 0049730 223.0622 170.7621  1.00284845 24944
BEIDOU-2 G7 (C03)       
1 41586U 16037A   23012.93951860 -.00000336  00000+0  00000+0 0  9991
2 41586   1.8472  70.2449 0007786 349.5610 141.0396  1.00277487 24242
BEIDOU-3 M1 (C19)       
1 43001U 17069A   23013.16253560 -.00000007  00000+0  00000+0 0  9994
2 43001  55.6825 104.6594 0009148 286.0890 161.2569  1.86231435 35309
BEIDOU-3 M2 (C20)       
1 43002U 17069B   23013.51502164 -.00000008  00000+0  00000+0 0  9992
2 43002  55.6822 104.6833 0006583 310.4391  56.0007  1.86231222 35303
BEIDOU-3 M3 (C27)       
1 43107U 18003A   23013.55138874 -.00000070  00000+0  00000+0 0  9993
2 43107  55.2368 345.4870 0003636  41.2230 156.0802  1.86232342 34063
BEIDOU-3 M4 (C28)       
1 43108U 18003B   23012.41057058 -.00000073  00000+0  00000+0 0  9995
2 43108  55.2318 345.5132 0004333 268.5387 286.6156  1.86230832 34045
BEIDOU-3 M5 (C21)       
1 43207U 18018A   23013.10010040 -.00000006  00000+0  00000+0 0  9994
2 43207  55.6419 104.7681 0003582 341.6836  18.3312  1.86231317 33448
BEIDOU-3 M6 (C22)       
1 43208U 18018B   23012.62978058 -.00000005  00000+0  00000+0 0  9992
2 43208  55.6411 104.7889 0006518 297.5032  62.4599  1.86231533 33436
BEIDOU-3 M7 (C29)       
1 43245U 18029A   23013.15516855 -.00000071  00000+0  00000+0 0  9990
2 43245  55.1418 343.2539 0001730 290.8412 271.4120  1.86232461 32599
BEIDOU-3 M8 (C30)       
1 43246U 18029B   23013.62284936 -.00000070  00000+0  10000-3 0  9999
2 43246  55.1393 343.2672 0004766 342.3655 220.1540  1.86232695 32590
BEIDOU IGSO-7 (C16)     
1 43539U 18057A   23013.09804516 -.00000059  00000+0  00000+0 0  9990
2 43539  55.0974 173.8752 0052022 224.8119 218.9965  1.00246137 16615
BEIDOU-3 M9 (C23)       
1 43581U 18062A   23013.40506028  .00000092  00000+0  00000+0 0  9991
2 43581  54.2217 224.9027 0002416 331.0954 296.9971  1.86231934 30337
BEIDOU-3 M10 (C24)      
1 43582U 18062B   23013.26789917  .00000090  00000+0  00000+0 0  9994
2 43582  54.2213 224.8968 0007045  25.5010 242.5641  1.86231511 30330
BEIDOU-3 M11 (C25)      
1 43602U 18067A   23013.10493205  .00000090  00000+0  00000+0 0  9997
2 43602  54.3061 223.5361 0008052  21.3349 178.4467  1.86231555 29829
BEIDOU-3 M12 (C26)      
1 43603U 18067B   23013.21577044  .00000091  00000+0  00000+0 0  9995
2 43603  54.3033 223.4986 0004975  17.0317 167.3984  1.86231493 29842
BEIDOU-3 M13 (C32)      
1 43622U 18072A   23013.03386733 -.00000007  00000+0  00000+0 0  9993
2 43622  55.6096 104.3181 0006044 277.7133 173.3827  1.86231300 29356
BEIDOU-3 M14 (C33)      
1 43623U 18072B   23013.31366358 -.00000008  00000+0  00000+0 0  9997
2 43623  55.6114 104.3013 0003613 301.2986  67.6256  1.86231317 29360
BEIDOU-3 M15 (C34)      
1 43647U 18078A   23012.12410587 -.00000074  00000+0  10000-3 0  9999
2 43647  55.0406 343.4305 0008029 355.9171 190.5628  1.86227463 28840
BEIDOU-3 M16 (C35)      
1 43648U 18078B   23013.35739275 -.00000071  00000+0  00000+0 0  9996
2 43648  55.0343 343.3940 0004518 357.9030 203.6508  1.86232065 28881
BEIDOU-3 G1 (C59)       
1 43683U 18085A   23013.57202017 -.00000258  00000+0  00000+0 0  9993
2 43683   1.0617 146.0755 0002331  37.1967 275.3922  1.00274889 15512
BEIDOU-3 M17 (C36)      
1 43706U 18093A   23011.05891899  .00000070  00000+0  00000+0 0  9992
2 43706  54.3049 224.8828 0006996 290.9552  69.0317  1.86232108 28202
BEIDOU-3 M18 (C37)      
1 43707U 18093B   23013.25348755  .00000090  00000+0  00000+0 0  9997
2 43707  54.3043 224.7989 0006909 326.3290 156.4474  1.86232299 28230
BEIDOU-3 IGSO-1 (C38)   
1 44204U 19023A   23013.62302735 -.00000203  00000+0  00000+0 0  9990
2 44204  56.8681  50.7228 0021772 206.7123 196.1616  1.00299965 13829
BEIDOU-2 G8             
1 44231U 19027A   23013.62618794 -.00000227  00000+0  00000+0 0  9995
2 44231   1.3734  80.5904 0006022 140.8024 261.4486  1.00271810 13532
BEIDOU-3 IGSO-2 (C39)   
1 44337U 19035A   23013.46358247 -.00000070  00000+0  00000+0 0  9993
2 44337  55.1266 169.8604 0029456 192.4322  34.6448  1.00293813 13157
BEIDOU-3 M23 (C45)      
1 44542U 19061A   23013.14331177  .00000089  00000+0  00000+0 0  9997
2 44542  54.5312 224.9948 0008775   2.4600 357.6018  1.86231501 22492
BEIDOU-3 M24 (C46)      
1 44543U 19061B   23013.27966042  .00000091  00000+0  00000+0 0  9990
2 44543  54.5279 224.9600 0005809 356.6422   6.3999  1.86231825 22496
BEIDOU-3 IGSO-3         
1 44709U 19073A   23005.34406189 -.00000194  00000+0  10000-3 0  9997
2 44709  56.9384 294.2842 0025663 181.8329 227.9589  1.00247626 11828
BEIDOU-3 M21            
1 44793U 19078A   23012.07704505 -.00000075  00000+0  10000-3 0  9994
2 44793  54.8868 343.4287 0006427   0.3579 108.9674  1.86232032 21333
BEIDOU-3 M22            
1 44794U 19078B   23012.84628582 -.00000072  00000+0  00000+0 0  9992
2 44794  54.8595 343.3890 0004606 350.2255 186.8706  1.86232534 21344
BEIDOU-3 M19            
1 44864U 19090A   23012.96496535 -.00000006  00000+0  00000+0 0  9995
2 44864  55.5443 104.5205 0016785 267.9102 182.9908  1.86231665 20934
BEIDOU-3 M20            
1 44865U 19090B   23013.36031551 -.00000008  00000+0  00000+0 0  9996
2 44865  55.5468 104.5396 0014432 281.6270 164.1754  1.86231667 20910
BEIDOU-3 G2             
1 45344U 20017A   23013.60151703 -.00000122  00000+0  00000+0 0  9996
2 45344   1.9893   3.3168 0000897 261.3032 144.7854  1.00271810 10727
BEIDOU-3 G3             
1 45807U 20040A   23010.63332100 -.00000337  00000+0  00000+0 0  9996
2 45807   0.9920 312.6190 0008883 343.3478 152.3131  1.00264684  9508
